[Satellite]
VERSION=1.1
NAME=FLOCK 2K-22
NICKNAME=FLOCK 2K-22
TLE1=1 42861U 17042AN  18021.16349657  .00009260  00000-0  27066-3 0  9999
TLE2=2 42861  96.9938 285.1485 0009008 287.9377  72.0886 15.35449056 29060
